OPTICUBE 04             
1 41851U 16067D   18248.21716333 -.00000116  00000-0 -48492-5 0  9990
2 41851  97.9232 337.3602 0007325 257.6218 102.4184 14.96703108 99068
AEROCUBE 8D             
1 41852U 16067E   18247.79491320  .00000673  00000-0  64499-4 0  9999
2 41852  97.9240 336.7683 0008163 257.0380 102.9929 14.96539688 98987
AEROCUBE 8C             
1 41853U 16067F   18248.21214832  .00000273  00000-0  29370-4 0  9994
2 41853  97.9244 337.1486 0008423 258.4503 101.5772 14.96508300 99045
PROMETHEUS 2-1          
1 41854U 16067G   18248.21240636  .00000408  00000-0  41093-4 0  9992
2 41854  97.9250 337.1787 0008733 257.9301 102.0941 14.96635891 99041
PROMETHEUS 2-3          
1 41855U 16067H   18248.81685149  .00000138  00000-0  17414-4 0  9991
2 41855  97.9253 337.7971 0008982 256.3112 103.7109 14.96634890 99137
ITF-2                   
1 41932U 98067KU  18248.17231684  .00052794  00000-0  25262-3 0  9991
2 41932  51.6299 286.9807 0002285  87.4693 272.6571 15.82222923 93409
WASEDA-SAT3             
1 41933U 98067KV  18248.53290220  .00171934  23079-4  38440-3 0  9998
2 41933  51.6288 271.8670 0004754  42.4013 317.7362 15.97419633 93635
AOBA-VELOX 3            
1 41935U 98067KX  18248.47289873  .00111466  00000-0  35710-3 0  9991
2 41935  51.6319 277.6418 0003291  53.6213 306.5096 15.90183837 93656
INS-1B                  
1 41954U 17008G   18248.20863417  .00001064  00000-0  47933-4 0  9994
2 41954  97.4393 311.4807 0011029  75.9220 284.3242 15.23204501 86183
BGUSAT                  
1 41999U 17008BD  18248.48942123  .00001833  00000-0  76508-4 0  9999
2 41999  97.4441 313.0657 0010178  90.0501 270.1903 15.24902562 85663
DIDO-2                  
1 42000U 17008BE  18248.79856274  .00000809  00000-0  37013-4 0  9998
2 42000  97.4408 312.5352 0010355  90.0821 270.1603 15.23347618 85670
PEASSS                  
1 42015U 17008BV  18248.73338375  .00000973  00000-0  42852-4 0  9994
2 42015  97.4408 313.0259 0008255  95.9700 264.2478 15.24186085 86185
AL-FARABI 1             
1 42016U 17008BW  18248.76864523  .00001210  00000-0  51901-4 0  9997
2 42016  97.4416 313.3204 0008129  96.0697 264.1467 15.24644525 86326
NAYIF-1 (EO-88)         
1 42017U 17008BX  18248.17092376  .00001113  00000-0  47953-4 0  9996
2 42017  97.4415 312.7340 0008110  97.8215 262.3943 15.24667817 86255
HAVELSAT                
1 42700U 98067LH  18249.38416932  .00032051  00000-0  20630-3 0  9998
2 42700  51.6315 298.1821 0000930 215.0607 145.0332 15.75877216 74806
CXBN-2                  
1 42704U 98067LM  18248.60427706  .00034714  00000-0  22835-3 0  9994
2 42704  51.6340 303.5030 0002057  57.3807 302.7391 15.75335557 74581
ICECUBE                 
1 42705U 98067LN  18248.67489818  .00194686  25927-4  49112-3 0  9995
2 42705  51.6454 287.5049 0004211  39.6963 320.4353 15.95176480 74865
PHOENIX                 
1 42706U 98067LP  18248.59009383  .00024199  00000-0  18208-3 0  9996
2 42706  51.6344 305.6682 0001381  60.3956 299.7180 15.72403990 74542
X-CUBESAT               
1 42707U 98067LQ  18248.62872239  .00043971  00000-0  26922-3 0  9990
2 42707  51.6333 301.2916 0001922  50.2236 309.8934 15.76861062 74590
QBEE50-LTU-OC           
1 42708U 98067LR  18248.37452831  .00038660  00000-0  25123-3 0  9996
2 42708  51.6334 304.1986 0001769  34.0066 326.1046 15.75562544 74498
ALTAIR PATHFINDER       
1 42711U 98067LS  18248.82139699  .00013862  00000-0  13549-3 0  9990
2 42711  51.6363 314.7612 0003389 108.5497 251.5867 15.66473141 74106
SHARC                   
1 42712U 98067LT  18249.17813074  .00025008  00000-0  22653-3 0  9997
2 42712  51.6372 314.2118 0001771  83.4507 276.6691 15.67893296 74380
ZA-AEROSAT              
1 42713U 98067LU  18248.43605291  .00024686  00000-0  19742-3 0  9992
2 42713  51.6345 309.8816 0002213  77.0523 283.0722 15.70934606 74130
LINK                    
1 42714U 98067LV  18248.59680763  .00333129  57441-4  66450-3 0  9995
2 42714  51.6173 286.4667 0007197  26.2445 333.8928 15.99254109 74562
CSUNSAT 1               
1 42715U 98067LW  18248.73300163  .00024686  00000-0  18939-3 0  9994
2 42715  51.6348 307.3852 0003261  89.5308 270.6064 15.71925659 74197
SPACECUBE               
1 42717U 98067LY  18249.42311298  .00032636  00000-0  21401-3 0  9996
2 42717  51.6296 299.1488 0000173 342.0135  18.0858 15.75439809 73733
HOOPOE                  
1 42718U 98067LZ  18249.40298317  .00050212  00000-0  26602-3 0  9999
2 42718  51.6284 294.4752 0001310  40.8179 319.2920 15.80032763 73794
NJUST-1                 
1 42722U 98067MB  18249.37718853  .00018959  00000-0  16009-3 0  9994
2 42722  51.6356 307.2014 0003447 169.6705 190.4364 15.69807013 73326
UNSW-ECO                
1 42723U 98067MC  18248.39938537  .00070666  00000-0  34651-3 0  9995
2 42723  51.6382 299.1135 0000792  67.9505 292.1582 15.81580607 73320
LILACSAT-1              
1 42725U 98067ME  18248.69458115  .00030044  00000-0  21608-3 0  9993
2 42725  51.6359 306.3698 0001892 159.7843 200.3231 15.73337772 73177
NSIGHT-1                
1 42726U 98067MF  18248.66367635  .00009460  00000-0  10863-3 0  9996
2 42726  51.6394 321.2964 0004448 168.8541 191.2553 15.62816147 72984
SNUSAT-1                
1 42727U 98067MG  18248.39001748  .00034484  00000-0  24751-3 0  9992
2 42727  51.6328 308.0131 0004035 120.9244 239.2152 15.73305209 73097
I-INSPIRE II            
1 42731U 98067ML  18248.60746492  .00065340  00000-0  30729-3 0  9990
2 42731  51.6342 296.6437 0003821  69.7211 290.4202 15.82501933 73159
POLYITAN-2-SAU          
1 42732U 98067MM  18248.64629634  .00041050  00000-0  25484-3 0  9997
2 42732  51.6324 302.2181 0003915  96.2037 263.9410 15.76572187 73085
SNUSAT-1B               
1 42733U 98067MN  18248.38140312  .00036705  00000-0  25161-3 0  9993
2 42733  51.6334 306.4862 0003900 105.5159 254.6270 15.74348127 73008
EXALTA-1                
1 42734U 98067MP  18248.60059892  .00079795  00000-0  34605-3 0  9990
2 42734  51.6264 295.7404 0002148  83.4089 276.7159 15.84150611 73115
BEEAGLESAT              
1 42736U 98067MR  18248.65449372  .00027557  00000-0  20734-3 0  9990
2 42736  51.6337 307.5693 0003073 162.9016 197.2086 15.72321082 73071
UCLSAT                  
1 42765U 17036A   18248.15812477  .00000855  00000-0  40407-4 0  9996
2 42765  97.3937 306.6942 0012628 149.4274 210.7701 15.22031309 66875
LITUANICASAT-2          
1 42768U 17036D   18248.10618768  .00001493  00000-0  68890-4 0  9996
2 42768  97.3956 306.2111 0016789 141.8810 218.3617 15.21660728 66712
AALTO-1                 
1 42775U 17036L   18247.71263021  .00000580  00000-0  29306-4 0  9993
2 42775  97.3929 305.6023 0015261 141.1670 219.0666 15.20869282 66588
URSA MAIOR              
1 42776U 17036M   18248.22112089  .00000749  00000-0  36834-4 0  9999
2 42776  97.3936 306.1697 0015154 139.6262 220.6101 15.20961503 66660
COMPASS 2               
1 42777U 17036N   18248.16282802  .00001211  00000-0  56024-4 0  9992
2 42777  97.3960 306.6374 0013989 142.1497 218.0726 15.21969783 66672
DIAMOND RED             
1 42783U 17036U   18248.77020906  .00000834  00000-0  39930-4 0  9998
2 42783  97.3937 307.1044 0013305 147.8261 212.3790 15.21613639 66760
PEGASUS                 
1 42784U 17036V   18248.46876283  .00000963  00000-0  45360-4 0  9999
2 42784  97.3939 306.9053 0013191 148.7618 211.4404 15.21834339 66729
DIAMOND GREEN           
1 42785U 17036W   18248.11135128  .00000663  00000-0  32372-4 0  9994
2 42785  97.3940 306.4727 0013133 150.5361 209.6617 15.21612996 66657
DIAMOND BLUE            
1 42786U 17036X   18248.83390487  .00000842  00000-0  40310-4 0  9995
2 42786  97.3939 307.1823 0013037 148.3319 211.8704 15.21615455 66769
NUDTSAT                 
1 42787U 17036Y   18248.55193529  .00001421  00000-0  64254-4 0  9990
2 42787  97.3949 307.2706 0012781 147.7703 212.4317 15.22486630 66597
SUCHAI                  
1 42788U 17036Z   18248.14815140  .00001002  00000-0  46674-4 0  9997
2 42788  97.3942 306.7241 0012782 149.3579 210.8406 15.22130423 66754
SKCUBE                  
1 42789U 17036AA  18247.75541813  .00000958  00000-0  44810-4 0  9996
2 42789  97.3939 306.3250 0012583 150.5820 209.6127 15.22079763 66619
VZLUSAT-1               
1 42790U 17036AB  18247.75159688  .00001239  00000-0  56429-4 0  9995
2 42790  97.3946 306.4900 0012244 150.3784 209.8148 15.22499289 66628
ROBUSTA-1B              
1 42792U 17036AD  18248.17655943  .00001136  00000-0  52364-4 0  9999
2 42792  97.3938 306.8180 0012185 149.8889 210.3050 15.22233870 66696
CICERO 6                
1 42793U 17036AE  18248.70653225  .00000848  00000-0  40112-4 0  9997
2 42793  97.3929 307.3046 0011343 148.8667 211.3243 15.22024519 66842
D-SAT                   
1 42794U 17036AF  18248.71647948  .00000097  00000-0  13932-4 0  9990
2 42794  97.5839 300.2967 0127298  14.9680 345.5251 14.90922591 65720
TOKI                    
1 42820U 98067MU  18248.45490262  .00028415  00000-0  22317-3 0  9999
2 42820  51.6344 311.5011 0002833  73.8639 286.2670 15.71281355 66466
MAZAALAI (NUMSAT-1)     
1 42822U 98067MW  18247.67806075  .00024065  00000-0  19315-3 0  9998
2 42822  51.6344 316.0729 0002633  74.2892 285.8396 15.70863429 66319
BRAC ONNESHA            
1 42823U 98067MX  18248.43104876  .00027885  00000-0  22099-3 0  9990
2 42823  51.6352 312.1237 0003803 112.9772 247.1627 15.71073551 66438
NIGERIAEDUSAT-1         
1 42824U 98067MY  18247.64053540  .00021992  00000-0  17784-3 0  9992
2 42824  51.6355 316.6153 0003742 111.3179 248.8218 15.70741586 66325
CORVUS BC2              
1 42846U 17042X   18248.69413719  .00000029  00000-0  82100-5 0  9998
2 42846  97.5884 148.6275 0008213 292.6163  67.4187 14.91851595 62372
CORVUS BC1              
1 42847U 17042Y   18248.19700392  .00000269  00000-0  31925-4 0  9994
2 42847  97.5886 148.2100 0007862 294.2423  65.7974 14.91950507 62293
